NORAD_CAT_ID,OBJECT_NAME,OBJECT_TYPE,EPOCH,MEAN_MOTION,ECCENTRICITY,INCLINATION,RA_OF_ASC_NODE,ARG_OF_PERICENTER,MEAN_ANOMALY,BSTAR,MEAN_MOTION_DOT,MEAN_MOTION_DDOT,TLE_LINE0,TLE_LINE1,TLE_LINE2,SEMIMAJOR_AXIS,PERIOD,APOGEE,PERIGEE,DECAYED
52626.0,STARLINK-3990,PAYLOAD,2022-07-17 14:00:01,15.38686113,0.000108,53.2175,126.0971,83.6752,325.3057,-0.02998,-0.01068235,0.0,0 STARLINK-3990,1 52626U 22052AE  22198.58334491 -.01068235  00000-0 -29980-1 0  9997,2 52626  53.2175 126.0971 0001080  83.6752 325.3057 15.38686113  1303,6828.130999999999,93.586,450.733,449.258,0.0
52626.0,STARLINK-3990,PAYLOAD,2022-07-17 22:00:00,15.37928085,0.0001200999999999,53.2177,124.531,81.1733,14.8017,-0.030801,-0.01070359,0.0,0 STARLINK-3990,1 52626U 22052AE  22198.91667824 -.01070359  00000-0 -30801-1 0  9997,2 52626  53.2177 124.5310 0001201  81.1733  14.8017 15.37928085  1304,6830.374,93.632,453.059,451.419,0.0
52626.0,STARLINK-3990,PAYLOAD,2022-07-18 12:00:00,15.36598256,0.0001161,53.2175,121.7935,94.3201,351.7005,-0.032119,-0.01068924,0.0,0 STARLINK-3990,1 52626U 22052AE  22199.50001157 -.01068924  00000-0 -32119-1 0  9993,2 52626  53.2175 121.7935 0001161  94.3201 351.7005 15.36598256 10532,6834.314,93.713,456.973,455.386,0.0
52626.0,STARLINK-3990,PAYLOAD,2022-07-18 14:00:01,15.36406697,0.0001299,53.2174,121.4025,84.2156,103.0127,-0.032217,-0.01065844,0.0,0 STARLINK-3990,1 52626U 22052AE  22199.58334491 -.01065844  00000-0 -32217-1 0  9998,2 52626  53.2174 121.4025 0001299  84.2156 103.0127 15.36406697  1302,6834.882,93.725,457.635,455.86,0.0
52626.0,STARLINK-3990,PAYLOAD,2022-07-18 22:00:00,15.35647681,0.0001327,53.2176,119.842,86.2354,145.2491,-0.033042,-0.01066577,0.0,0 STARLINK-3990,1 52626U 22052AE  22199.91667824 -.01066577  00000-0 -33042-1 0  9995,2 52626  53.2176 119.8420 0001327  86.2354 145.2491 15.35647681  1309,6837.134,93.772,459.907,458.092,0.0
52626.0,STARLINK-3990,PAYLOAD,2022-07-19 04:00:00,15.35077379,0.0001402,53.2175,118.6733,71.2011,102.8769,-0.033609,-0.01065272,0.0,0 STARLINK-3990,1 52626U 22052AE  22200.16667824 -.01065272  00000-0 -33609-1 0  9995,2 52626  53.2175 118.6733 0001402  71.2011 102.8769 15.35077379 10634,6838.828,93.806,461.651,459.734,0.0
52626.0,STARLINK-3990,PAYLOAD,2022-07-19 14:00:01,15.34127525,0.0001149,53.2174,116.7241,94.4244,222.8372,-0.034631,-0.01064753,0.0,0 STARLINK-3990,1 52626U 22052AE  22200.58334491 -.01064753  00000-0 -34631-1 0  9991,2 52626  53.2174 116.7241 0001149  94.4244 222.8372 15.34127525  1304,6841.65,93.864,464.301,462.729,0.0
52626.0,STARLINK-3990,PAYLOAD,2022-07-19 22:00:00,15.33370134,0.0001184,53.2175,115.1689,108.019,250.7602,-0.035587,-0.01067797,0.0,0 STARLINK-3990,1 52626U 22052AE  22200.91667824 -.01067797  00000-0 -35587-1 0  9999,2 52626  53.2175 115.1689 0001184 108.0190 250.7602 15.33370134  1306,6843.903,93.911,466.578,464.958,0.0
52626.0,STARLINK-3990,PAYLOAD,2022-07-20 12:00:00,15.32041906,0.0001112,53.2174,112.4501,88.4882,250.7533,-0.0371839999999999,-0.01069604,0.0,0 STARLINK-3990,1 52626U 22052AE  22201.50001157 -.01069604  00000-0 -37184-1 0  9990,2 52626  53.2174 112.4501 0001112  88.4882 250.7533 15.32041906 10830,6847.858,93.992,470.484,468.961,0.0
52626.0,STARLINK-3990,PAYLOAD,2022-07-20 14:00:01,15.31848956,0.0001157,53.2174,112.0617,81.2051,357.8758,-0.037219,-0.01064577,0.0,0 STARLINK-3990,1 52626U 22052AE  22201.58334491 -.01064577  00000-0 -37219-1 0  9991,2 52626  53.2174 112.0617 0001157  81.2051 357.8758 15.31848956  1301,6848.433000000001,94.004,471.09,469.506,0.0
52626.0,STARLINK-3990,PAYLOAD,2022-07-20 22:00:01,15.31090777,0.0001286999999999,53.2174,110.5121,79.2421,38.6824,-0.0381899999999999,-0.01066504,0.0,0 STARLINK-3990,1 52626U 22052AE  22201.91668981 -.01066504  00000-0 -38190-1 0  9993,2 52626  53.2174 110.5121 0001287  79.2421  38.6824 15.31090777  1304,6850.694,94.051,473.44,471.677,0.0
52626.0,STARLINK-3990,PAYLOAD,2022-07-21 06:00:00,15.30330585,0.0001299,53.2171,108.9643,90.7151,65.0135,-0.039025,-0.01064419,0.0,0 STARLINK-3990,1 52626U 22052AE  22202.25001157 -.01064419  00000-0 -39025-1 0  9998,2 52626  53.2171 108.9643 0001299  90.7151  65.0135 15.30330585 10955,6852.962,94.097,475.717,473.937,0.0
52626.0,STARLINK-3990,PAYLOAD,2022-07-21 14:00:01,15.29570681,0.0001329,53.2172,107.4155,84.1055,108.6441,-0.039957,-0.01064387,0.0,0 STARLINK-3990,1 52626U 22052AE  22202.58335648 -.01064387  00000-0 -39957-1 0  9997,2 52626  53.2172 107.4155 0001329  84.1055 108.6441 15.29570681  1306,6855.232,94.144,478.008,476.186,0.0
52626.0,STARLINK-3990,PAYLOAD,2022-07-21 22:00:00,15.28810492,0.0001365999999999,53.2174,105.8716,84.1699,144.5584,-0.040847,-0.0106292,0.0,0 STARLINK-3990,1 52626U 22052AE  22202.91667824 -.01062920  00000-0 -40847-1 0  9999,2 52626  53.2174 105.8716 0001366  84.1699 144.5584 15.28810492  1301,6857.504,94.191,480.306,478.432,0.0
52626.0,STARLINK-3990,PAYLOAD,2022-07-22 04:00:00,15.28238193,0.0001338,53.2173,104.715,89.5958,75.5663,-0.041391,-0.01058609,0.0,0 STARLINK-3990,1 52626U 22052AE  22203.16667824 -.01058609  00000-0 -41391-1 0  9991,2 52626  53.2173 104.7150 0001338  89.5958  75.5663 15.28238193 11096,6859.215999999999,94.226,481.999,480.163,0.0
52626.0,STARLINK-3990,PAYLOAD,2022-07-22 06:00:00,15.28053577,0.0001277,53.2171,104.3288,96.6558,167.2014,-0.041969,-0.01066588,0.0,0 STARLINK-3990,1 52626U 22052AE  22203.25001157 -.01066588  00000-0 -41969-1 0  9998,2 52626  53.2171 104.3288 0001277  96.6558 167.2014 15.28053577  1302,6859.768,94.238,482.509,480.757,0.0
52626.0,STARLINK-3990,PAYLOAD,2022-07-22 20:00:01,15.26722488,0.0001376999999999,53.2174,101.6312,80.0195,153.1213,-0.043587,-0.01063736,0.0,0 STARLINK-3990,1 52626U 22052AE  22203.83334491 -.01063736  00000-0 -43587-1 0  9992,2 52626  53.2174 101.6312 0001377  80.0195 153.1213 15.26722488 11193,6863.755,94.32,486.565,484.675,0.0
52626.0,STARLINK-3990,PAYLOAD,2022-07-22 22:00:00,15.26532964,0.0001214,53.2173,101.2469,77.7871,253.5938,-0.043851,-0.0106396,0.0,0 STARLINK-3990,1 52626U 22052AE  22203.91667824 -.01063960  00000-0 -43851-1 0  9993,2 52626  53.2173 101.2469 0001214  77.7871 253.5938 15.26532964  1304,6864.323,94.331,487.021,485.355,0.0
52626.0,STARLINK-3990,PAYLOAD,2022-07-23 14:00:01,15.25011909,0.0001165,53.2172,98.1713,106.5412,288.7773,-0.0458,-0.01061374,0.0,0 STARLINK-3990,1 52626U 22052AE  22204.58335648 -.01061374  00000-0 -45800-1 0  9996,2 52626  53.2172  98.1713 0001165 106.5412 288.7773 15.25011909  1303,6868.887,94.425,491.552,489.951,0.0
52626.0,STARLINK-3990,PAYLOAD,2022-07-23 22:00:00,15.24255061,0.0001324,53.2173,96.6385,63.6293,2.1906,-0.047034,-0.01065102,0.0,0 STARLINK-3990,1 52626U 22052AE  22204.91667824 -.01065102  00000-0 -47034-1 0  9991,2 52626  53.2173  96.6385 0001324  63.6293   2.1906 15.24255061  1303,6871.16,94.472,493.935,492.116,0.0
52626.0,STARLINK-3990,PAYLOAD,2022-07-24 14:00:01,15.22735558,0.0001325,53.2173,93.5735,73.8389,50.3785,-0.049211,-0.01064892,0.0,0 STARLINK-3990,1 52626U 22052AE  22205.58334491 -.01064892  00000-0 -49211-1 0  9990,2 52626  53.2173  93.5735 0001325  73.8389  50.3785 15.22735558  1300,6875.731,94.567,498.507,496.685,0.0
52626.0,STARLINK-3990,PAYLOAD,2022-07-24 20:00:01,15.22165892,0.000143,53.2174,92.4277,52.6868,2.4871,-0.050025,-0.01064391,0.0,0 STARLINK-3990,1 52626U 22052AE  22205.83334491 -.01064391  00000-0 -50025-1 0  9997,2 52626  53.2174  92.4277 0001430  52.6868   2.4871 15.22165892 11509,6877.446,94.602,500.294,498.327,0.0
52626.0,STARLINK-3990,PAYLOAD,2022-07-24 22:00:00,15.21974767,0.0001609,53.2172,92.046,54.3871,97.6588,-0.050203,-0.01062359,0.0,0 STARLINK-3990,1 52626U 22052AE  22205.91667824 -.01062359  00000-0 -50203-1 0  9995,2 52626  53.2172  92.0460 0001609  54.3871  97.6588 15.21974767  1304,6878.022,94.614,500.99300000000005,498.78,0.0
52626.0,STARLINK-3990,PAYLOAD,2022-07-25 14:00:01,15.20457306,0.00014,53.2172,88.9916,77.4213,127.5453,-0.05266,-0.01065228,0.0,0 STARLINK-3990,1 52626U 22052AE  22206.58334491 -.01065228  00000-0 -52660-1 0  9997,2 52626  53.2172  88.9916 0001400  77.4213 127.5453 15.20457306  1307,6882.597,94.708,505.426,503.499,0.0
52626.0,STARLINK-3990,PAYLOAD,2022-07-25 20:00:01,15.19886067,0.0001431999999999,53.2173,87.8499,66.9147,66.9555,-0.053385,-0.01062221,0.0,0 STARLINK-3990,1 52626U 22052AE  22206.83334491 -.01062221  00000-0 -53385-1 0  9990,2 52626  53.2173  87.8499 0001432  66.9147  66.9555 15.19886067 11652,6884.321999999999,94.744,507.172,505.201,0.0
52626.0,STARLINK-3990,PAYLOAD,2022-07-25 22:00:00,15.19695201,0.0001458,53.2173,87.4695,71.3049,158.7526,-0.053577,-0.01060281,0.0,0 STARLINK-3990,1 52626U 22052AE  22206.91667824 -.01060281  00000-0 -53577-1 0  9995,2 52626  53.2173  87.4695 0001458  71.3049 158.7526 15.19695201  1302,6884.898,94.756,507.767,505.759,0.0
52626.0,STARLINK-3990,PAYLOAD,2022-07-26 12:00:00,15.18366289,0.000143,53.2173,84.8059,69.7413,112.0302,-0.055707,-0.01073924,0.0,0 STARLINK-3990,1 52626U 22052AE  22207.50001157 -.01073924  00000-0 -55707-1 0  9997,2 52626  53.2173  84.8059 0001430  69.7413 112.0302 15.18366289 11758,6888.915,94.839,511.765,509.795,0.0
52626.0,STARLINK-3990,PAYLOAD,2022-07-26 14:00:01,15.18176923,0.0001329,53.2173,84.4256,75.1219,202.3805,-0.0560919999999999,-0.010753,0.0,0 STARLINK-3990,1 52626U 22052AE  22207.58334491 -.01075300  00000-0 -56092-1 0  9993,2 52626  53.2173  84.4256 0001329  75.1219 202.3805 15.18176923  1300,6889.488,94.851,512.268,510.437,0.0
52626.0,STARLINK-3990,PAYLOAD,2022-07-26 22:00:00,15.1741751,0.000148,53.2173,82.90899999999998,56.1744,243.6797,-0.057297,-0.01074619,0.0,0 STARLINK-3990,1 52626U 22052AE  22207.91667824 -.01074619  00000-0 -57297-1 0  9999,2 52626  53.2173  82.9090 0001480  56.1744 243.6797 15.17417510  1306,6891.786,94.898,514.6709999999998,512.631,0.0
